start=new Date('2023-01-20T00:00:00.000Z').valueOf();
sats=[{"REV_AT_EPOCH":"12689","APOAPSIS":"547.770","MEAN_MOTION_DOT":"0.00009396","ARG_OF_PERICENTER":"66.8697","TIME_SYSTEM":"UTC","TLE_LINE1":"1 46585U 20070BF  23019.61076997  .00009396  00000-0  64860-3 0  9991","NORAD_CAT_ID":"46585","GP_ID":"223507186","OBJECT_TYPE":"PAYLOAD","PERIOD":"95.591","INCLINATION":"53.0526","ECCENTRICITY":"0.00008580","REF_FRAME":"TEME","MEAN_MOTION":"15.06412470","RCS_SIZE":"LARGE","EPHEMERIS_TYPE":"0","OBJECT_NAME":"STARLINK-1736","MEAN_MOTION_DDOT":"0.0000000000000","BSTAR":"0.00064860000000","CLASSIFICATION_TYPE":"U","COUNTRY_CODE":"US","MEAN_ANOMALY":"293.2383","EPOCH":"2023-01-19T14:39:30.525408","DECAY_DATE":null,"RA_OF_ASC_NODE":"257.0805","SEMIMAJOR_AXIS":"6925.310","ELEMENT_SET_NO":"999","FILE":"3755224","TLE_LINE2":"2 46585  53.0526 257.0805 0000858  66.8697 293.2383 15.06412470126897","MEAN_ELEMENT_THEORY":"SGP4","OBJECT_ID":"2020-070BF","CENTER_NAME":"EARTH","SITE":"AFETR","LAUNCH_DATE":"2020-10-06","PERIAPSIS":"546.581"},{"MEAN_MOTION_DOT":"0.00011761","APOAPSIS":"548.063","REV_AT_EPOCH":"12679","TIME_SYSTEM":"UTC","ARG_OF_PERICENTER":"76.8432","REF_FRAME":"TEME","ECCENTRICITY":"0.00013280","INCLINATION":"53.0525","MEAN_MOTION":"15.06422984","GP_ID":"223507188","NORAD_CAT_ID":"46586","TLE_LINE1":"1 46586U 20070BG  23019.06987172  .00011761  00000-0  80661-3 0  9993","PERIOD":"95.591","OBJECT_TYPE":"PAYLOAD","MEAN_ANOMALY":"283.2705","EPOCH":"2023-01-19T01:40:36.916608","ELEMENT_SET_NO":"999","SEMIMAJOR_AXIS":"6925.278","RA_OF_ASC_NODE":"259.4984","DECAY_DATE":null,"BSTAR":"0.00080661000000","MEAN_MOTION_DDOT":"0.0000000000000","OBJECT_NAME":"STARLINK-1737","EPHEMERIS_TYPE":"0","RCS_SIZE":"LARGE","COUNTRY_CODE":"US","CLASSIFICATION_TYPE":"U","PERIAPSIS":"546.223","LAUNCH_DATE":"2020-10-06","SITE":"AFETR","CENTER_NAME":"EARTH","MEAN_ELEMENT_THEORY":"SGP4","OBJECT_ID":"2020-070BG","FILE":"3755224","TLE_LINE2":"2 46586  53.0525 259.4984 0001328  76.8432 283.2705 15.06422984126799"},{"MEAN_MOTION_DOT":"-0.00000275","REV_AT_EPOCH":"12717","APOAPSIS":"548.270","TIME_SYSTEM":"UTC","ARG_OF_PERICENTER":"81.2087","REF_FRAME":"TEME","INCLINATION":"53.0500","ECCENTRICITY":"0.00015230","MEAN_MOTION":"15.06399499","GP_ID":"223494900","TLE_LINE1":"1 46588U 20070BJ  23019.44952683 -.00000275  00000-0  44352-6 0  9995","NORAD_CAT_ID":"46588","PERIOD":"95.592","OBJECT_TYPE":"PAYLOAD","MEAN_ANOMALY":"278.9074","EPOCH":"2023-01-19T10:47:19.118112","ELEMENT_SET_NO":"999","SEMIMAJOR_AXIS":"6925.350","DECAY_DATE":null,"RA_OF_ASC_NODE":"257.8140","OBJECT_NAME":"STARLINK-1746","MEAN_MOTION_DDOT":"0.0000000000000","BSTAR":"0.00000044352000","RCS_SIZE":"LARGE","EPHEMERIS_TYPE":"0","COUNTRY_CODE":"US","CLASSIFICATION_TYPE":"U","LAUNCH_DATE":"2020-10-06","PERIAPSIS":"546.160","SITE":"AFETR","CENTER_NAME":"EARTH","TLE_LINE2":"2 46588  53.0500 257.8140 0001523  81.2087 278.9074 15.06399499127170","FILE":"3754973","MEAN_ELEMENT_THEORY":"SGP4","OBJECT_ID":"2020-070BJ"},{"CLASSIFICATION_TYPE":"U","COUNTRY_CODE":"US","EPHEMERIS_TYPE":"0","RCS_SIZE":"LARGE","BSTAR":"-0.00080551000000","MEAN_MOTION_DDOT":"0.0000000000000","OBJECT_NAME":"STARLINK-1749","DECAY_DATE":null,"RA_OF_ASC_NODE":"256.9465","ELEMENT_SET_NO":"999","SEMIMAJOR_AXIS":"6925.423","EPOCH":"2023-01-19T15:23:19.478688","MEAN_ANOMALY":"254.4046","OBJECT_ID":"2020-070BK","MEAN_ELEMENT_THEORY":"SGP4","TLE_LINE2":"2 46589  53.0529 256.9465 0000480 105.6995 254.4046 15.06375711127205","FILE":"3755151","CENTER_NAME":"EARTH","SITE":"AFETR","PERIAPSIS":"546.956","LAUNCH_DATE":"2020-10-06","ARG_OF_PERICENTER":"105.6995","TIME_SYSTEM":"UTC","APOAPSIS":"547.620","REV_AT_EPOCH":"12720","MEAN_MOTION_DOT":"-0.00012251","OBJECT_TYPE":"PAYLOAD","PERIOD":"95.594","NORAD_CAT_ID":"46589","TLE_LINE1":"1 46589U 20070BK  23019.64119767 -.00012251  00000-0 -80551-3 0  9992","GP_ID":"223505227","MEAN_MOTION":"15.06375711","ECCENTRICITY":"0.00004800","INCLINATION":"53.0529","REF_FRAME":"TEME"},{"COUNTRY_CODE":"US","CLASSIFICATION_TYPE":"U","OBJECT_NAME":"STARLINK-1755","MEAN_MOTION_DDOT":"0.0000000000000","BSTAR":"-0.00015620000000","RCS_SIZE":"LARGE","EPHEMERIS_TYPE":"0","ELEMENT_SET_NO":"999","SEMIMAJOR_AXIS":"6925.381","RA_OF_ASC_NODE":"256.4054","DECAY_DATE":null,"EPOCH":"2023-01-19T18:18:28.692576","MEAN_ANOMALY":"266.8607","CENTER_NAME":"EARTH","TLE_LINE2":"2 46591  53.0506 256.4054 0001341  93.2536 266.8607 15.06389471127222","FILE":"3755151","OBJECT_ID":"2020-070BM","MEAN_ELEMENT_THEORY":"SGP4","LAUNCH_DATE":"2020-10-06","PERIAPSIS":"546.317","SITE":"AFETR","TIME_SYSTEM":"UTC","ARG_OF_PERICENTER":"93.2536","MEAN_MOTION_DOT":"-0.00002607","APOAPSIS":"548.175","REV_AT_EPOCH":"12722","PERIOD":"95.593","OBJECT_TYPE":"PAYLOAD","GP_ID":"223505234","TLE_LINE1":"1 46591U 20070BM  23019.76283209 -.00002607  00000-0 -15620-3 0  9990","NORAD_CAT_ID":"46591","MEAN_MOTION":"15.06389471","REF_FRAME":"TEME","INCLINATION":"53.0506","ECCENTRICITY":"0.00013410"},{"MEAN_MOTION_DDOT":"0.0000000000000","BSTAR":"0.00184620000000","OBJECT_NAME":"STARLINK-1715","EPHEMERIS_TYPE":"0","RCS_SIZE":"LARGE","COUNTRY_CODE":"US","CLASSIFICATION_TYPE":"U","EPOCH":"2023-01-19T06:15:19.606176","MEAN_ANOMALY":"262.8580","SEMIMAJOR_AXIS":"6925.273","ELEMENT_SET_NO":"999","RA_OF_ASC_NODE":"348.8974","DECAY_DATE":null,"CENTER_NAME":"EARTH","MEAN_ELEMENT_THEORY":"SGP4","OBJECT_ID":"2020-073B","FILE":"3754973","TLE_LINE2":"2 46671  53.0544 348.8974 0001698  97.2602 262.8580 15.06424677124415","PERIAPSIS":"545.962","LAUNCH_DATE":"2020-10-18","SITE":"AFETR","MEAN_MOTION_DOT":"0.00027343","REV_AT_EPOCH":"12441","APOAPSIS":"548.314","TIME_SYSTEM":"UTC","ARG_OF_PERICENTER":"97.2602","GP_ID":"223494160","NORAD_CAT_ID":"46671","TLE_LINE1":"1 46671U 20073B   23019.26064359  .00027343  00000-0  18462-2 0  9998","PERIOD":"95.591","OBJECT_TYPE":"PAYLOAD","REF_FRAME":"TEME","ECCENTRICITY":"0.00016980","INCLINATION":"53.0544","MEAN_MOTION":"15.06424677"},{"SITE":"AFETR","PERIAPSIS":"546.174","LAUNCH_DATE":"2020-10-18","MEAN_ELEMENT_THEORY":"SGP4","OBJECT_ID":"2020-073C","FILE":"3754973","TLE_LINE2":"2 46672  53.0520 343.2839 0001317  86.8400 273.2739 15.06441452124509","CENTER_NAME":"EARTH","DECAY_DATE":null,"RA_OF_ASC_NODE":"343.2839","SEMIMAJOR_AXIS":"6925.222","ELEMENT_SET_NO":"999","MEAN_ANOMALY":"273.2739","EPOCH":"2023-01-19T08:15:21.822048","CLASSIFICATION_TYPE":"U","COUNTRY_CODE":"US","EPHEMERIS_TYPE":"0","RCS_SIZE":"LARGE","BSTAR":"0.00219520000000","MEAN_MOTION_DDOT":"0.0000000000000","OBJECT_NAME":"STARLINK-1716","MEAN_MOTION":"15.06441452","ECCENTRICITY":"0.00013170","INCLINATION":"53.0520","REF_FRAME":"TEME","OBJECT_TYPE":"PAYLOAD","PERIOD":"95.590","NORAD_CAT_ID":"46672","TLE_LINE1":"1 46672U 20073C   23019.34400257  .00032604  00000-0  21952-2 0  9993","GP_ID":"223494410","ARG_OF_PERICENTER":"86.8400","TIME_SYSTEM":"UTC","REV_AT_EPOCH":"12450","APOAPSIS":"547.999","MEAN_MOTION_DOT":"0.00032604"},{"TIME_SYSTEM":"UTC","ARG_OF_PERICENTER":"96.0653","MEAN_MOTION_DOT":"0.00016642","REV_AT_EPOCH":"12476","APOAPSIS":"548.225","MEAN_MOTION":"15.06433122","REF_FRAME":"TEME","ECCENTRICITY":"0.00016070","INCLINATION":"53.0546","PERIOD":"95.590","OBJECT_TYPE":"PAYLOAD","GP_ID":"223504593","NORAD_CAT_ID":"46673","TLE_LINE1":"1 46673U 20073D   23019.32605339  .00016642  00000-0  11325-2 0  9997","SEMIMAJOR_AXIS":"6925.247","ELEMENT_SET_NO":"999","RA_OF_ASC_NODE":"358.4703","DECAY_DATE":null,"EPOCH":"2023-01-19T07:49:31.012896","MEAN_ANOMALY":"264.0519","COUNTRY_CODE":"US","CLASSIFICATION_TYPE":"U","MEAN_MOTION_DDOT":"0.0000000000000","BSTAR":"0.00113250000000","OBJECT_NAME":"STARLINK-1717","EPHEMERIS_TYPE":"0","RCS_SIZE":"LARGE","PERIAPSIS":"545.999","LAUNCH_DATE":"2020-10-18","SITE":"AFETR","CENTER_NAME":"EARTH","OBJECT_ID":"2020-073D","MEAN_ELEMENT_THEORY":"SGP4","TLE_LINE2":"2 46673  53.0546 358.4703 0001607  96.0653 264.0519 15.06433122124768","FILE":"3755142"},{"MEAN_MOTION_DOT":"0.00000782","REV_AT_EPOCH":"12503","APOAPSIS":"548.181","TIME_SYSTEM":"UTC","ARG_OF_PERICENTER":"109.3828","REF_FRAME":"TEME","ECCENTRICITY":"0.00014140","INCLINATION":"53.0550","MEAN_MOTION":"15.06403721","GP_ID":"223506235","NORAD_CAT_ID":"46674","TLE_LINE1":"1 46674U 20073E   23019.70154593  .00000782  00000-0  71407-4 0  9998","PERIOD":"95.592","OBJECT_TYPE":"PAYLOAD","MEAN_ANOMALY":"250.7314","EPOCH":"2023-01-19T16:50:13.568352","SEMIMAJOR_AXIS":"6925.337","ELEMENT_SET_NO":"999","DECAY_DATE":null,"RA_OF_ASC_NODE":"341.6682","BSTAR":"0.00007140700000","MEAN_MOTION_DDOT":"0.0000000000000","OBJECT_NAME":"STARLINK-1718","EPHEMERIS_TYPE":"0","RCS_SIZE":"LARGE","COUNTRY_CODE":"US","CLASSIFICATION_TYPE":"U","PERIAPSIS":"546.223","LAUNCH_DATE":"2020-10-18","SITE":"AFETR","CENTER_NAME":"EARTH","OBJECT_ID":"2020-073E","MEAN_ELEMENT_THEORY":"SGP4","FILE":"3755186","TLE_LINE2":"2 46674  53.0550 341.6682 0001414 109.3828 250.7314 15.06403721125030"},{"RCS_SIZE":"LARGE","EPHEMERIS_TYPE":"0","OBJECT_NAME":"STARLINK-1720","MEAN_MOTION_DDOT":"0.0000000000000","BSTAR":"0.00255460000000","CLASSIFICATION_TYPE":"U","COUNTRY_CODE":"US","EPOCH":"2023-01-19T07:11:41.290080","MEAN_ANOMALY":"260.9287","DECAY_DATE":null,"RA_OF_ASC_NODE":"343.4748","ELEMENT_SET_NO":"999","SEMIMAJOR_AXIS":"6925.290","FILE":"3754973","TLE_LINE2":"2 46675  53.0545 343.4748 0001472  99.1868 260.9287 15.06418950124493","OBJECT_ID":"2020-073F","MEAN_ELEMENT_THEORY":"SGP4","CENTER_NAME":"EARTH","SITE":"AFETR","LAUNCH_DATE":"2020-10-18","PERIAPSIS":"546.136","APOAPSIS":"548.175","REV_AT_EPOCH":"12449","MEAN_MOTION_DOT":"0.00037995","ARG_OF_PERICENTER":"99.1868","TIME_SYSTEM":"UTC","TLE_LINE1":"1 46675U 20073F   23019.29978345  .00037995  00000-0  25546-2 0  9999","NORAD_CAT_ID":"46675","GP_ID":"223493662","OBJECT_TYPE":"PAYLOAD","PERIOD":"95.591","INCLINATION":"53.0545","ECCENTRICITY":"0.00014720","REF_FRAME":"TEME","MEAN_MOTION":"15.06418950"}];
